{
  "type": "FeatureCollection",
  "features": [
    {
      "type": "Feature",
      "properties": {
        "id": "jerusalem-city-of-david",
        "name_en": "City of David (c. 1000 BCE)",
        "name_ru": "Город Давидов (ок. 1000 г. до н. э.)",
        "period": "c. 1000 BCE",
        "source": "Own reconstruction on the eastern ridge (topography from the public-domain OS 1864-65 survey); anchors from Wikidata (CC0): Large Stone Structure Q2905863, Stepped Stone Structure Q3500659, Gihon Spring Q204601, Pool of Siloam Q1483483. Schematic: the exact 10th-century circuit is not known archaeologically.",
        "licence": "Public domain (OS 1864-65) + CC0 (Wikidata); derived geometry CC0",
        "accuracy_m": 75
      },
      "geometry": {
        "type": "Polygon",
        "coordinates": [
          [
            [35.23477, 31.77367],
            [35.23464, 31.77248],
            [35.23464, 31.7713],
            [35.23491, 31.77063],
            [35.23544, 31.77091],
            [35.23586, 31.77201],
            [35.23606, 31.77311],
            [35.2361, 31.77375],
            [35.236, 31.77449],
            [35.23502, 31.77457],
            [35.23477, 31.77367]
          ]
        ]
      }
    },
    {
      "type": "Feature",
      "properties": {
        "id": "jerusalem-herodian-30ce",
        "name_en": "Jerusalem in the time of Jesus (First and Second Walls, before the Third Wall)",
        "name_ru": "Иерусалим во времена Иисуса (Первая и Вторая стены, до Третьей)",
        "period": "c. 30 BCE - 41 CE",
        "source": "Own reconstruction. Temple Mount, Citadel and west wall from the public-domain OS 1864-65 survey; anchors from Wikidata (CC0): Antonia Q570515, Gihon Q204601, Pool of Siloam Q1483483, Mount Zion (Protestant) cemetery Q6924767, Holy Sepulchre Q187702. Course of the Second Wall and of the south wall on Mount Zion follows Josephus (War 5.142-146) and published excavation findings (Bliss & Dickie 1894-97, Kenyon); line placed by us, not traced from any modern map.",
        "licence": "Public domain (OS 1864-65) + CC0 (Wikidata); derived geometry CC0",
        "accuracy_m": 100
      },
      "geometry": {
        "type": "Polygon",
        "coordinates": [
          [
            [35.2273, 31.77537],
            [35.22775, 31.77533],
            [35.22767, 31.77279],
            [35.2274, 31.77201],
            [35.22728, 31.77091],
            [35.22833, 31.7704],
            [35.23005, 31.77032],
            [35.23219, 31.7702],
            [35.23416, 31.77016],
            [35.23498, 31.7702],
            [35.2353, 31.77067],
            [35.2359, 31.77185],
            [35.23611, 31.77311],
            [35.2362, 31.77406],
            [35.23641, 31.77509],
            [35.23727, 31.77603],
            [35.23707, 31.77882],
            [35.23697, 31.78013],
            [35.23484, 31.78016],
            [35.23486, 31.78051],
            [35.23379, 31.78053],
            [35.23216, 31.78061],
            [35.23079, 31.78077],
            [35.2305, 31.7788],
            [35.23038, 31.77675],
            [35.22938, 31.77651],
            [35.22839, 31.77647],
            [35.22734, 31.77641],
            [35.2273, 31.77537]
          ]
        ]
      }
    },
    {
      "type": "Feature",
      "properties": {
        "id": "jerusalem-walls-ottoman",
        "name_en": "Old City walls (Ottoman, 1537–41)",
        "name_ru": "Стены Старого города (османские, 1537–1541)",
        "period": "1537-41 CE to present",
        "source": "Ordnance Survey of Jerusalem 1864-65 (Capt. C. W. Wilson), Wikimedia Commons \"1865 Ordnance Survey of Jerusalem Old City.jpg\" (public domain), georeferenced with 10 Wikidata (CC0) control points. Wall line read off the survey sheet; gates match Wikidata Q312812, Q947597, Q1484405, Q129278, Q1367167, Q204719, Q205416.",
        "licence": "Public domain (OS 1864-65) + CC0 (Wikidata); derived geometry CC0",
        "accuracy_m": 25
      },
      "geometry": {
        "type": "Polygon",
        "coordinates": [
          [
            [35.22729, 31.77635],
            [35.2273, 31.77537],
            [35.22775, 31.77533],
            [35.22767, 31.77279],
            [35.22808, 31.77284],
            [35.2292, 31.77284],
            [35.22967, 31.77276],
            [35.23101, 31.77296],
            [35.23226, 31.77331],
            [35.23286, 31.77414],
            [35.23398, 31.77475],
            [35.23549, 31.77494],
            [35.23544, 31.77572],
            [35.23727, 31.77603],
            [35.23707, 31.77882],
            [35.23695, 31.78087],
            [35.23689, 31.78386],
            [35.23636, 31.78378],
            [35.23512, 31.78345],
            [35.23423, 31.78313],
            [35.23341, 31.78297],
            [35.2328, 31.78276],
            [35.23245, 31.78257],
            [35.23163, 31.78264],
            [35.23128, 31.78236],
            [35.23067, 31.78178],
            [35.22999, 31.78132],
            [35.22915, 31.78055],
            [35.22791, 31.77965],
            [35.22762, 31.77997],
            [35.22697, 31.7796],
            [35.22627, 31.77935],
            [35.22638, 31.77897],
            [35.22595, 31.77842],
            [35.2261, 31.77818],
            [35.22617, 31.77801],
            [35.22688, 31.77728],
            [35.22756, 31.7766],
            [35.22729, 31.77635]
          ]
        ]
      }
    }
  ]
}
